{
  "norad_id": 56788,
  "name": "STARLINK-6336",
  "history": [
    {
      "epoch": "2026-05-03T13:44:00.857760Z",
      "apogee_km": 574.5975743690615,
      "perigee_km": 569.5656161061106,
      "latitude_deg": -1.8941941318290005e-05,
      "longitude_deg": 118.63032505921154,
      "height_km": 574.4877504482212,
      "semi_major_axis_km": 6950.218595237586,
      "eccentricity": 0.000362,
      "inclination_deg": 69.9999,
      "raan_deg": 186.1079,
      "arg_perigee_deg": 270.498,
      "mean_anomaly_deg": 89.5764,
      "mean_motion_rev_day": 14.98321688
    },
    {
      "epoch": "2026-05-04T12:09:53.720064Z",
      "apogee_km": 574.6150581790062,
      "perigee_km": 569.5233371186077,
      "latitude_deg": -2.4886183893762314e-05,
      "longitude_deg": 138.8821373737676,
      "height_km": 574.4922787645608,
      "semi_major_axis_km": 6950.206197648807,
      "eccentricity": 0.0003663,
      "inclination_deg": 69.9998,
      "raan_deg": 183.7512,
      "arg_perigee_deg": 270.1121,
      "mean_anomaly_deg": 89.9618,
      "mean_motion_rev_day": 14.98325697
    },
    {
      "epoch": "2026-05-05T13:48:02.081376Z",
      "apogee_km": 574.5053893603899,
      "perigee_km": 569.6235678418197,
      "latitude_deg": 3.80981817509135e-05,
      "longitude_deg": 110.60129841519178,
      "height_km": 574.5191383057651,
      "semi_major_axis_km": 6950.201478601104,
      "eccentricity": 0.0003512,
      "inclination_deg": 69.9997,
      "raan_deg": 181.058,
      "arg_perigee_deg": 269.3723,
      "mean_anomaly_deg": 90.7034,
      "mean_motion_rev_day": 14.98327223
    },
    {
      "epoch": "2026-05-06T13:50:03.215040Z",
      "apogee_km": 574.4580970087845,
      "perigee_km": 569.6749669380806,
      "latitude_deg": 2.0115101082125444e-05,
      "longitude_deg": 106.58503760749717,
      "height_km": 574.540705556123,
      "semi_major_axis_km": 6950.203531973432,
      "eccentricity": 0.0003441,
      "inclination_deg": 69.9997,
      "raan_deg": 178.5335,
      "arg_perigee_deg": 268.8903,
      "mean_anomaly_deg": 91.1862,
      "mean_motion_rev_day": 14.98326559
    },
    {
      "epoch": "2026-05-07T20:16:35.097024Z",
      "apogee_km": 574.1994568141527,
      "perigee_km": 569.8597727798733,
      "latitude_deg": -2.850168392330925e-05,
      "longitude_deg": 5.502757577120933,
      "height_km": 574.4249138560733,
      "semi_major_axis_km": 6950.166614797013,
      "eccentricity": 0.0003122,
      "inclination_deg": 70.0005,
      "raan_deg": 175.3343,
      "arg_perigee_deg": 270.8534,
      "mean_anomaly_deg": 89.2267,
      "mean_motion_rev_day": 14.98338497
    },
    {
      "epoch": "2026-05-08T20:18:37.023840Z",
      "apogee_km": 574.4934924956378,
      "perigee_km": 569.6422494956832,
      "latitude_deg": -4.0610979908983044e-05,
      "longitude_deg": 1.4839859622836797,
      "height_km": 574.5934066871656,
      "semi_major_axis_km": 6950.204870995661,
      "eccentricity": 0.000349,
      "inclination_deg": 69.9991,
      "raan_deg": 172.8106,
      "arg_perigee_deg": 267.6924,
      "mean_anomaly_deg": 92.3835,
      "mean_motion_rev_day": 14.98326126
    },
    {
      "epoch": "2026-05-09T12:19:57.671616Z",
      "apogee_km": 574.4723966918646,
      "perigee_km": 569.64062216411,
      "latitude_deg": -1.956052724597268e-05,
      "longitude_deg": 118.80674306268767,
      "height_km": 574.6042991415987,
      "semi_major_axis_km": 6950.193509427987,
      "eccentricity": 0.0003476,
      "inclination_deg": 69.999,
      "raan_deg": 171.1274,
      "arg_perigee_deg": 267.1544,
      "mean_anomaly_deg": 92.9217,
      "mean_motion_rev_day": 14.983298
    },
    {
      "epoch": "2026-05-10T12:21:58.984128Z",
      "apogee_km": 574.5710212052236,
      "perigee_km": 569.6043906303757,
      "latitude_deg": 4.0420299350342396e-05,
      "longitude_deg": 114.78916559668735,
      "height_km": 574.5255643540512,
      "semi_major_axis_km": 6950.2247059178,
      "eccentricity": 0.0003573,
      "inclination_deg": 69.9989,
      "raan_deg": 168.6023,
      "arg_perigee_deg": 269.7704,
      "mean_anomaly_deg": 90.3046,
      "mean_motion_rev_day": 14.98319712
    },
    {
      "epoch": "2026-05-11T09:11:44.083104Z",
      "apogee_km": 574.5274278512888,
      "perigee_km": 569.6437844348575,
      "latitude_deg": -4.380542997355733e-05,
      "longitude_deg": 159.30789756416263,
      "height_km": 574.5504696750703,
      "semi_major_axis_km": 6950.222606143073,
      "eccentricity": 0.00035133,
      "inclination_deg": 69.9989,
      "raan_deg": 166.4144,
      "arg_perigee_deg": 269.1318,
      "mean_anomaly_deg": 90.9438,
      "mean_motion_rev_day": 14.98320391
    },
    {
      "epoch": "2026-05-12T18:50:33.445248Z",
      "apogee_km": 574.4950335450521,
      "perigee_km": 569.5895969843386,
      "latitude_deg": -6.748538542697463e-05,
      "longitude_deg": 9.685878685422505,
      "height_km": 574.5202786811242,
      "semi_major_axis_km": 6950.179315264695,
      "eccentricity": 0.0003529,
      "inclination_deg": 69.9991,
      "raan_deg": 162.8799,
      "arg_perigee_deg": 268.8307,
      "mean_anomaly_deg": 91.2447,
      "mean_motion_rev_day": 14.9833439
    },
    {
      "epoch": "2026-05-13T10:51:54.291744Z",
      "apogee_km": 574.4841263018343,
      "perigee_km": 569.6426167230393,
      "latitude_deg": -2.527920173302131e-05,
      "longitude_deg": 127.00761502917439,
      "height_km": 574.5940200292009,
      "semi_major_axis_km": 6950.2003715124365,
      "eccentricity": 0.0003483,
      "inclination_deg": 69.9988,
      "raan_deg": 161.1965,
      "arg_perigee_deg": 267.566,
      "mean_anomaly_deg": 92.51,
      "mean_motion_rev_day": 14.98327581
    },
    {
      "epoch": "2026-05-14T07:41:39.072768Z",
      "apogee_km": 574.4845790894115,
      "perigee_km": 569.6319527547448,
      "latitude_deg": 4.147234825439426e-05,
      "longitude_deg": 171.52763103666177,
      "height_km": 574.6149456196232,
      "semi_major_axis_km": 6950.195265922078,
      "eccentricity": 0.0003491,
      "inclination_deg": 69.9988,
      "raan_deg": 159.0085,
      "arg_perigee_deg": 266.9563,
      "mean_anomaly_deg": 93.1197,
      "mean_motion_rev_day": 14.98329232
    },
    {
      "epoch": "2026-05-15T06:07:31.844352Z",
      "apogee_km": 574.4880606754414,
      "perigee_km": 569.6183404095291,
      "latitude_deg": -1.7618828865990393e-05,
      "longitude_deg": -168.21989382223168,
      "height_km": 574.6138801785573,
      "semi_major_axis_km": 6950.1902005424845,
      "eccentricity": 0.00035033,
      "inclination_deg": 69.9987,
      "raan_deg": 156.6521,
      "arg_perigee_deg": 266.873,
      "mean_anomaly_deg": 93.2028,
      "mean_motion_rev_day": 14.9833087
    }
  ]
}